HIERARCHY
ROOT __0
{
	OFFSET 0.0 0.0 0.0
	CHANNELS 0
	JOINT joint1
	{
		OFFSET 0.000000 0.000000 0.000000
		CHANNELS 6 Xposition Yposition Zposition Xrotation Yrotation Zrotation
		JOINT joint2
		{
			OFFSET 0.000000 0.000000 1.000000
			CHANNELS 3 Xrotation Yrotation Zrotation
			JOINT joint3
			{
				OFFSET -0.000000 -2.126091 0.288576
				CHANNELS 3 Xrotation Yrotation Zrotation
				JOINT joint4
				{
					OFFSET -0.000000 1.865263 0.325436
					CHANNELS 3 Xrotation Yrotation Zrotation
					JOINT joint5
					{
						OFFSET -0.000000 1.606792 0.170482
					}
						OFFSET -0.000000 1.865263 0.325436
						CHANNELS 3 Xrotation Yrotation Zrotation
						End Site
						{
							OFFSET -0.000000 1.606792 0.170482
						}

				}
			}
		}
	}
	JOINT IK
	{
		OFFSET -0.000000 -0.260828 1.614012
		CHANNELS 6 Xposition Yposition Zposition Xrotation Yrotation Zrotation
		End Site
		{
			OFFSET 0.000000 1.986115 -0.106551
		}
	}
}
MOTION
Frames: 250
Frame Time: 0.033333
0.0000 0.000000 0.000000 -0.000000 0.000000 -0.000000 0.000000 0.000000 0.000000 0.000000 -0.000000 0.000002 0.000000 0.000001 -0.000008 -0.000000 0.000000 0.000000 -0.000000 0.000000 -0.000000 
0.000000 0.000000 0.000000 -0.000000 0.000000 -0.000000 0.427523 -0.000000 -0.000001 -1.897263 -0.000000 0.000003 -4.768765 0.000001 -0.000008 -0.000000 1.334943 1.775339 -0.000000 0.000000 -0.000000 
0.000000 0.000000 0.000000 -0.000000 0.000000 -0.000000 0.946369 -0.000000 -0.000002 -2.758435 -0.000001 0.000005 -4.817524 0.000001 -0.000008 -0.000000 1.319570 1.837945 -0.000000 0.000000 -0.000000 
0.000000 0.000000 0.000000 -0.000000 0.000000 -0.000000 -1.355814 -0.000000 -0.000002 -3.711126 -0.000001 0.000006 -4.746338 0.000001 -0.000008 -0.000000 1.302722 1.906559 -0.000000 0.000000 -0.000000 
0.000000 0.000000 0.000000 -0.000000 0.000000 -0.000000 -1.633826 -0.000000 -0.000003 -4.759128 -0.000001 0.000008 -4.554050 0.000001 -0.000008 -0.000000 1.284469 1.980895 -0.000000 0.000000 -0.000000 
0.000000 0.000000 0.000000 -0.000000 0.000000 -0.000000 -1.774759 -0.000000 -0.000003 -5.877608 -0.000001 0.000010 -4.191881 0.000001 -0.000007 0.000000 1.264881 2.060666 -0.000000 0.000000 -0.000000 
0.000000 0.000000 0.000000 -0.000000 0.000000 -0.000000 -1.779877 -0.000000 -0.000003 -7.026750 -0.000001 0.000012 -3.584573 0.000001 -0.000006 -0.000000 1.244028 2.145587 -0.000000 0.000000 -0.000000 
0.000000 0.000000 0.000000 -0.000000 0.000000 -0.000000 -1.618615 -0.000000 -0.000003 -8.293662 -0.000001 0.000014 -2.902346 0.000001 -0.000005 -0.000000 1.221982 2.235372 -0.000000 0.000000 -0.000000 
0.000000 0.000000 0.000000 -0.000000 0.000000 -0.000000 -1.292496 -0.000000 -0.000002 -9.693212 -0.000001 0.000016 -2.186663 0.000000 -0.000004 -0.000000 1.198811 2.329734 -0.000000 0.000000 -0.000000 
0.000000 0.000000 0.000000 -0.000000 0.000000 -0.000000 0.812771 -0.000000 -0.000001 -11.213160 -0.000001 0.000019 -1.428640 0.000000 -0.000002 -0.000000 1.174586 2.428387 -0.000000 0.000000 -0.000000 
0.000000 0.000000 0.000000 -0.000000 0.000000 -0.000000 0.191285 -0.000000 -0.000000 -12.839298 -0.000001 0.000021 -0.615190 0.000000 -0.000001 -0.000000 1.149378 2.531046 -0.000000 0.000000 -0.000000 
0.000000 0.000000 0.000000 -0.000000 0.000000 -0.000000 0.562245 0.000000 0.000001 -14.570376 -0.000001 0.000024 0.241210 -0.000000 0.000000 -0.000000 1.123257 2.637424 -0.000000 0.000000 -0.000000 
0.000000 0.000000 0.000000 -0.000000 0.000000 -0.000000 1.439361 0.000000 0.000002 -16.426335 -0.000001 0.000027 1.083893 -0.000000 0.000002 -0.000000 1.096293 2.747234 -0.000000 0.000000 -0.000000 
0.000000 0.000000 0.000000 -0.000000 0.000000 -0.000000 2.427711 0.000000 0.000004 -18.391459 -0.000000 0.000031 1.930031 -0.000000 0.000003 -0.000000 1.068556 2.860192 -0.000000 0.000000 -0.000000 
0.000000 0.000000 0.000000 -0.000000 0.000000 -0.000000 3.516425 0.000001 0.000006 -20.424658 0.000000 0.000034 2.853442 -0.000000 0.000005 0.000000 1.040117 2.976011 -0.000000 0.000000 -0.000000 
0.000000 0.000000 0.000000 -0.000000 0.000000 -0.000000 4.699179 0.000001 0.000008 -22.595577 0.000001 0.000037 3.692716 -0.000000 0.000006 -0.000000 1.011045 3.094404 -0.000000 0.000000 -0.000000 
0.000000 0.000000 0.000000 -0.000000 0.000000 -0.000000 5.966521 0.000001 0.000010 -24.843037 0.000002 0.000041 4.567106 -0.000001 0.000008 0.000000 0.981411 3.215086 -0.000000 0.000000 -0.000000 
0.000000 0.000000 0.000000 -0.000000 0.000000 -0.000000 7.312965 0.000001 0.000012 -27.151190 0.000003 0.000045 5.502248 -0.000001 0.000009 0.000000 0.951285 3.337772 -0.000000 0.000000 -0.000000 
0.000000 0.000000 0.000000 -0.000000 0.000000 -0.000000 8.734068 0.000001 0.000015 -29.515317 0.000004 0.000049 6.500994 -0.000001 0.000011 0.000000 0.920739 3.462173 -0.000000 0.000000 -0.000000 
0.000000 0.000000 0.000000 -0.000000 0.000000 -0.000000 10.224130 0.000001 0.000017 -31.957601 0.000006 0.000052 7.506596 -0.000001 0.000013 0.000000 0.889840 3.588005 -0.000000 0.000000 -0.000000 
0.000000 0.000000 0.000000 -0.000000 0.000000 -0.000000 11.776727 0.000001 0.000020 -34.494870 0.000007 0.000056 8.472762 -0.000000 0.000014 -0.000000 0.858661 3.714981 -0.000000 0.000000 -0.000000 
0.000000 0.000000 0.000000 -0.000000 0.000000 -0.000000 13.389628 0.000000 0.000022 -37.100990 0.000009 0.000060 9.452218 -0.000000 0.000016 -0.000000 0.827271 3.842816 -0.000000 0.000000 -0.000000 
0.000000 0.000000 0.000000 -0.000000 0.000000 -0.000000 15.061242 0.000000 0.000025 -39.761516 0.000011 0.000064 10.473468 -0.000000 0.000017 0.000000 0.795741 3.971222 -0.000000 0.000000 -0.000000 
0.000000 0.000000 0.000000 -0.000000 0.000000 -0.000000 16.788689 -0.000000 0.000028 -42.481010 0.000014 0.000068 11.522631 -0.000000 0.000019 -0.000000 0.764140 4.099916 -0.000000 0.000000 -0.000000 
0.000000 0.000000 0.000000 -0.000000 0.000000 -0.000000 18.565617 -0.000001 0.000031 -45.282590 0.000016 0.000072 12.539508 0.000000 0.000021 -0.000000 0.732539 4.228608 -0.000000 0.000000 -0.000000 
0.000000 0.000000 0.000000 -0.000000 0.000000 -0.000000 20.390968 -0.000001 0.000034 -48.157915 0.000019 0.000076 13.540389 0.000000 0.000023 -0.000000 0.701009 4.357016 -0.000000 0.000000 -0.000000 
0.000000 0.000000 0.000000 -0.000000 0.000000 -0.000000 22.265203 -0.000002 0.000037 -51.094832 0.000022 0.000079 14.552611 0.000001 0.000024 0.000000 0.669619 4.484849 -0.000000 0.000000 -0.000000 
0.000000 0.000000 0.000000 -0.000000 0.000000 -0.000000 24.188189 -0.000003 0.000040 -54.089217 0.000026 0.000083 15.586036 0.000001 0.000026 -0.000000 0.638440 4.611826 -0.000000 0.000000 -0.000000 
0.000000 0.000000 0.000000 -0.000000 0.000000 -0.000000 26.154394 -0.000004 0.000043 -57.155491 0.000029 0.000087 16.600082 0.000001 0.000028 -0.000000 0.607541 4.737658 -0.000000 0.000000 -0.000000 
0.000000 0.000000 0.000000 -0.000000 0.000000 -0.000000 28.160441 -0.000005 0.000046 -60.300776 0.000033 0.000090 17.572451 0.000001 0.000029 -0.000000 0.576994 4.862059 -0.000000 0.000000 -0.000000 
0.000000 0.000000 0.000000 -0.000000 0.000000 -0.000000 30.222320 -0.000006 0.000049 -63.527535 0.000037 0.000093 18.543805 0.000002 0.000031 0.000000 0.546869 4.984743 -0.000000 0.000000 -0.000000 
0.000000 0.000000 0.000000 -0.000000 0.000000 -0.000000 32.323252 -0.000008 0.000053 -66.808041 0.000042 0.000097 19.522236 0.000002 0.000032 -0.000000 0.517235 5.105426 -0.000000 0.000000 -0.000000 
0.000000 0.000000 0.000000 -0.000000 0.000000 -0.000000 34.463635 -0.000009 0.000056 -70.170167 0.000047 0.000099 20.456360 0.000002 0.000034 -0.000000 0.488164 5.223820 -0.000000 0.000000 -0.000000 
0.000000 0.000000 0.000000 -0.000000 0.000000 -0.000000 36.652837 -0.000011 0.000059 -73.628504 0.000052 0.000102 21.345234 0.000003 0.000035 0.000000 0.459724 5.339639 -0.000000 0.000000 -0.000000 
0.000000 0.000000 0.000000 -0.000000 0.000000 -0.000000 38.882696 -0.000013 0.000062 -77.157457 0.000057 0.000105 22.214482 0.000003 0.000037 -0.000000 0.431987 5.452596 -0.000000 0.000000 -0.000000 
0.000000 0.000000 0.000000 -0.000000 0.000000 -0.000000 41.154373 -0.000015 0.000066 -80.775190 0.000063 0.000107 23.032815 0.000004 0.000038 0.000000 0.405023 5.562407 -0.000000 0.000000 -0.000000 
0.000000 0.000000 0.000000 -0.000000 0.000000 -0.000000 43.476046 -0.000017 0.000069 -84.501345 0.000069 0.000109 23.785744 0.000004 0.000039 -0.000000 0.378902 5.668785 -0.000000 0.000000 -0.000000 
0.000000 0.000000 0.000000 -0.000000 0.000000 -0.000000 45.842034 -0.000020 0.000072 -88.313800 0.000075 0.000110 24.499002 0.000004 0.000040 -0.000000 0.353693 5.771443 -0.000000 0.000000 -0.000000 
0.000000 0.000000 0.000000 -0.000000 0.000000 -0.000000 48.250840 -0.000022 0.000075 -92.252237 0.000081 0.000111 25.088513 0.000005 0.000041 -0.000000 0.329469 5.870097 -0.000000 0.000000 -0.000000 
0.000000 0.000000 0.000000 -0.000000 0.000000 -0.000000 50.708974 -0.000025 0.000078 -96.293878 0.000088 0.000112 25.617357 0.000005 0.000042 0.000000 0.306298 5.964458 -0.000000 0.000000 -0.000000 
0.000000 0.000000 0.000000 -0.000000 0.000000 -0.000000 53.214984 -0.000028 0.000081 -100.473968 0.000095 0.000112 26.008315 0.000005 0.000043 0.000000 0.284252 6.054244 -0.000000 0.000000 -0.000000 
0.000000 0.000000 0.000000 -0.000000 0.000000 -0.000000 55.765322 -0.000031 0.000084 -104.782212 0.000102 0.000112 26.267261 0.000005 0.000043 0.000000 0.263399 6.139164 -0.000000 0.000000 -0.000000 
0.000000 0.000000 0.000000 -0.000000 0.000000 -0.000000 58.372777 -0.000034 0.000087 -109.250679 0.000110 0.000111 26.365334 0.000005 0.000043 0.000000 0.243811 6.218935 -0.000000 0.000000 -0.000000 
0.000000 0.000000 0.000000 -0.000000 0.000000 -0.000000 61.026231 -0.000038 0.000090 -113.883760 0.000117 0.000109 26.252068 0.000005 0.000043 0.000000 0.225558 6.293272 -0.000000 0.000000 -0.000000 
0.000000 0.000000 0.000000 -0.000000 0.000000 -0.000000 63.720556 -0.000041 0.000092 -118.696926 0.000125 0.000107 25.870781 0.000005 0.000043 -0.000000 0.208709 6.361886 -0.000000 0.000000 -0.000000 
0.000000 0.000000 0.000000 -0.000000 0.000000 -0.000000 66.450255 -0.000045 0.000095 -123.705121 0.000133 0.000104 25.162079 0.000005 0.000041 0.000000 0.193337 6.424491 -0.000000 0.000000 -0.000000 
0.000000 0.000000 0.000000 -0.000000 0.000000 -0.000000 69.209911 -0.000049 0.000097 -128.924848 0.000141 0.000100 24.061175 0.000004 0.000040 0.000000 0.179509 6.480803 -0.000000 0.000000 -0.000000 
0.000000 0.000000 0.000000 -0.000000 0.000000 -0.000000 71.978815 -0.000053 0.000099 -134.380830 0.000148 0.000095 22.431311 0.000003 0.000037 0.000000 0.167297 6.530535 -0.000000 0.000000 -0.000000 
0.000000 0.000000 0.000000 -0.000000 0.000000 -0.000000 74.731265 -0.000057 0.000101 -140.085855 0.000156 0.000089 20.140841 0.000002 0.000033 0.000000 0.156771 6.573401 -0.000000 0.000000 -0.000000 
0.000000 0.000000 0.000000 -0.000000 0.000000 -0.000000 77.470854 -0.000062 0.000103 -146.149369 0.000163 0.000083 16.950865 0.000001 0.000028 0.000000 0.148002 6.609114 -0.000000 0.000000 -0.000000 
0.000000 0.000000 0.000000 -0.000000 0.000000 -0.000000 80.274947 -0.000066 0.000104 -152.948631 0.000171 0.000074 12.300814 0.000000 0.000020 0.000000 0.141059 6.637390 -0.000000 0.000000 -0.000000 
0.000000 0.000000 0.000000 -0.000000 0.000000 -0.000000 83.498339 -0.000071 0.000106 -161.930507 0.000179 0.000061 4.280971 -0.000000 0.000007 0.000000 0.136013 6.657941 -0.000000 0.000000 -0.000000 
0.000000 0.000000 0.000000 -0.000000 0.000000 -0.000000 83.464099 -0.000071 0.000106 -161.930343 0.000179 0.000061 4.281116 -0.000000 0.000007 0.000000 0.132933 6.670481 -0.000000 0.000000 -0.000000 
0.000000 0.000000 0.000000 -0.000000 0.000000 -0.000000 83.452542 -0.000071 0.000106 -161.930289 0.000179 0.000061 4.281167 -0.000000 0.000007 -0.000000 0.131891 6.674725 -0.000000 0.000000 -0.000000 
0.000000 0.000000 0.000000 -0.000000 0.000000 -0.000000 83.452542 -0.000071 0.000106 -161.930289 0.000179 0.000061 4.281167 -0.000000 0.000007 -0.000000 0.131891 6.674725 -0.000000 0.000000 -0.000000 
